{
    "links": {
        "self": "http://www.neowsapp.com/rest/v1/neo/3445624?api_key=iIulBulltgU6a56xZRHN4H3l9WmuAYTsLGpBGhQ2"
    },
    "id": "3445624",
    "neo_reference_id": "3445624",
    "name": "(2009 CV1)",
    "designation": "2009 CV1",
    "nasa_jpl_url": "http://ssd.jpl.nasa.gov/sbdb.cgi?sstr=3445624",
    "absolute_magnitude_h": 26.0,
    "estimated_diameter": {
        "kilometers": {
            "estimated_diameter_min": 0.0167708462,
            "estimated_diameter_max": 0.0375007522
        },
        "meters": {
            "estimated_diameter_min": 16.7708462163,
            "estimated_diameter_max": 37.5007521798
        },
        "miles": {
            "estimated_diameter_min": 0.0104209175,
            "estimated_diameter_max": 0.0233018799
        },
        "feet": {
            "estimated_diameter_min": 55.0224631002,
            "estimated_diameter_max": 123.0339677816
        }
    },
    "is_potentially_hazardous_asteroid": false,
    "close_approach_data": [
        {
            "close_approach_date": "2009-01-25",
            "close_approach_date_full": "2009-Jan-25 11:44",
            "epoch_date_close_approach": 1232883840000,
            "relative_velocity": {
                "kilometers_per_second": "12.4950080682",
                "kilometers_per_hour": "44982.029045619",
                "miles_per_hour": "27950.0835478181"
            },
            "miss_distance": {
                "astronomical": "0.0333280756",
                "lunar": "12.9646214084",
                "kilometers": "4985809.120958972",
                "miles": "3098038.1298269336"
            },
            "orbiting_body": "Earth"
        }
    ],
    "orbital_data": {
        "orbit_id": "6",
        "orbit_determination_date": "2017-04-06 09:01:24",
        "first_observation_date": "2009-02-03",
        "last_observation_date": "2009-02-04",
        "data_arc_in_days": 1,
        "observations_used": 22,
        "orbit_uncertainty": "9",
        "minimum_orbit_intersection": ".0332764",
        "jupiter_tisserand_invariant": "3.854",
        "epoch_osculation": "2454866.5",
        "eccentricity": ".5288989138697048",
        "semi_major_axis": "1.818738203410062",
        "inclination": "8.29650555313993",
        "ascending_node_longitude": "137.5912322172512",
        "orbital_period": "895.8879826264504",
        "perihelion_distance": ".8568095430131422",
        "perihelion_argument": "293.9362439163733",
        "aphelion_distance": "2.780666863806982",
        "perihelion_time": "2454818.097983672765",
        "mean_anomaly": "19.44967028882451",
        "mean_motion": ".401835951571309",
        "equinox": "J2000",
        "orbit_class": {
            "orbit_class_type": "APO",
            "orbit_class_description": "Near-Earth asteroid orbits which cross the Earth’s orbit similar to that of 1862 Apollo",
            "orbit_class_range": "a (semi-major axis) > 1.0 AU; q (perihelion) < 1.017 AU"
        }
    },
    "is_sentry_object": false
}